ONEWEB-0291             
1 49081U 21075G   25068.50987035  .00000145  00000+0  34034-3 0  9991
2 49081  87.9008  98.4261 0001690  88.2746 271.8579 13.17648641172412
ONEWEB-0293             
1 49082U 21075H   25068.53517717  .00000070  00000+0  14587-3 0  9999
2 49082  87.9012  98.4485 0001962  89.6362 270.4994 13.17647130172448
ONEWEB-0294             
1 49083U 21075J   25068.51143197 -.00000201  00000+0 -59278-3 0  9999
2 49083  87.8798  83.1477 0001808  73.6200 286.5127 13.12441733173627
ONEWEB-0295             
1 49084U 21075K   25068.53432053  .00000108  00000+0  24554-3 0  9997
2 49084  87.9014  98.4291 0001520  92.2424 267.8881 13.17650958172409
ONEWEB-0296             
1 49085U 21075L   25068.56819505  .00000471  00000+0  12740-2 0  9998
2 49085  87.8799  83.1426 0001340  77.0144 283.1134 13.12443618173636
ONEWEB-0297             
1 49086U 21075M   25068.52277042 -.00000346  00000+0 -99728-3 0  9994
2 49086  87.8807  83.1781 0001835  92.4799 267.6539 13.12440933174237
ONEWEB-0298             
1 49087U 21075N   25068.53869326  .00000084  00000+0  18402-3 0  9995
2 49087  87.9014  98.4450 0001803  99.5916 260.5419 13.17647205172430
ONEWEB-0299             
1 49088U 21075P   25068.54024304 -.00000058  00000+0 -18325-3 0  9993
2 49088  87.9011  98.4023 0001724 100.3459 259.7867 13.17649080172417
